#cP2022 10  7  0  0  0.00000000      96 ORBIT IGb14 HLM  IGS
## 2230 432000.00000000   900.00000000 59859 0.0000000000000
+   32   G01G02G03G04G05G06G07G08G09G10G11G12G13G14G15G16G17
+        G18G19G20G21G22G23G24G25G26G27G28G29G30G31G32  0  0
+          0  0  0  0  0  0  0  0  0  0  0  0  0  0  0  0  0
+          0  0  0  0  0  0  0  0  0  0  0  0  0  0  0  0  0
+          0  0  0  0  0  0  0  0  0  0  0  0  0  0  0  0  0
++         2  2  3  2  2  2  2  2  2  2  3  2  2  2  2  2  2
++         3  2  2  2  2  2  3  2  2  2  2  2  2  2  2  0  0
++         0  0  0  0  0  0  0  0  0  0  0  0  0  0  0  0  0
++         0  0  0  0  0  0  0  0  0  0  0  0  0  0  0  0  0
++         0  0  0  0  0  0  0  0  0  0  0  0  0  0  0  0  0
%c G  cc GPS ccc cccc cccc cccc cccc ccccc ccccc ccccc ccccc
%c cc cc ccc ccc cccc cccc cccc cccc ccccc ccccc ccccc ccccc
%f  1.2500000  1.025000000  0.00000000000  0.000000000000000
%f  0.0000000  0.000000000  0.00000000000  0.000000000000000
%i    0    0    0    0      0      0      0      0         0
%i    0    0    0    0      0      0      0      0         0
/* RAPID ORBIT COMBINATION FROM WEIGHTED AVERAGE OF:        
/* cod emr esa gfz jpl ngs sio usn whu                      
/* REFERENCED TO IGS TIME (IGST) AND TO WEIGHTED MEAN POLE: 
/* PCV:IGS14_2223 OL/AL:FES2004  NONE     Y  ORB:CMB CLK:CMB
*  2022 10  7  4 30  0.00000000
PG01  13930.064965 -22377.245926    551.545609    271.602802  7  9  2  99       
PG02 -14173.248577  21944.188625  -4699.391827   -643.360305  6 11  6 118       
PG03  15781.710377 -11965.665947 -17770.886418   -361.517923  6  7  3  98       
PG04   5505.326211 -17811.588035 -18878.181592   -107.548887  7  7  5 116       
PG05 -24282.478585   6778.432670   8373.863241    -99.444820  6  6  5 106       
PG06 -12571.531510  -7389.195337 -22135.728464    483.823974  6  7    109       
PG07   2518.110601 -22876.947320  13232.299665    301.138112  3  6  1 102       
PG08  12475.526129  -8668.180867  21735.396645    -87.746482  3  6  6 117       
PG09  -4998.856391 -23631.840822 -11078.313329   -286.584481  8  5  5 116       
PG10  17109.209874  11574.778965  17021.637241     -6.440412  5  4  6 109       
PG11 -18236.254787   3870.869314 -18902.313303    -23.136845  8  7  6 117       
PG12 -16679.586580  10985.922053 -17723.742210   -289.317315  3  9  6 122       
PG13 -15890.491602   -633.887751  21133.436754    401.380656  6  1  7 107       
PG14 -14832.616200 -13231.231976  17678.489314    -97.494975  4  8  4  96       
PG15 -11675.932472  10455.534436  20992.172045    -22.982980  6  5  6 116       
PG16  26627.910111    572.245174   2798.407125   -525.809403  2  7  4 114       
PG17 -12768.683168 -23132.675598  -1880.338399    666.327044  5  7  5  83       
PG18  -2373.710193  22322.480292  14081.295836     23.425426  4  9  7 122       
PG19 -16606.896416 -16885.065550 -12516.251847    220.467593  7  5  6 108       
PG20 -25872.275330    123.422996  -5428.073579    480.414235  4  8  7 117       
PG21  16680.399685 -17457.817595  10771.328380    158.404938  5  3  6 105       
PG22  17291.966938  14548.580932 -13678.056832    341.121346  6  5  5 118       
PG23   6023.673559  14527.914277  21411.201192     -0.822068  6  5  5 110       
PG24 -14428.013067  21335.503450   5174.188163    109.224644  6 11  7 117       
PG25  -3983.156980  15300.672942 -21602.218255    379.779978  3  8  5 126       
PG26  25317.056729   4176.309675  -7565.716997    231.499111     8  5  90       
PG27  17671.462214   4300.764389  19277.884872    201.952151  3  3  3 111       
PG28 -21680.364963 -10217.863744  11674.570112    331.936127  7  8  4 113       
PG29   2193.919135  23538.606267 -12065.115205   -557.652193  6  9  7 111       
PG30  -6950.617165 -16489.970724  19642.177534   -537.232266  5  8  7 117       
PG31  14082.704943   6451.737662 -21739.943301   -195.933861  3  2  4  92       
PG32  15913.689915  20848.005463  -4665.143510   -255.599301  6  5  5 100       
*  2022 10  7  4 45  0.00000000
PG01  13975.725809 -22046.887739   3470.932919    271.597305  5  7  2  96       
PG02 -14069.677825  21153.682759  -7443.211368   -643.358990  5 11  6 123       
PG03  17691.257394 -11879.083081 -15911.622401   -361.522350  6  7  3  93       
PG04   6710.776340 -15925.536575 -20140.158237   -107.543555  7  6  5 114       
PG05 -25119.072230   6605.879554   5675.256189    -99.445880  6  6  6 103       
PG06 -11342.018964  -9599.292004 -21945.057421    483.834121  6  7  2 112       
PG07   3385.644234 -23928.087336  10851.317904    301.134875  3  5     99       
PG08  13836.277635  -6580.770140  21675.918924    -87.747353  3  5  7 113       
PG09  -4055.521167 -22581.898689 -13425.635247   -286.579937  8  5  5 120       
PG10  15110.519721  11742.285631  18702.082050     -6.441333  5  4  5 105       
PG11 -17164.421756   1905.543868 -20167.119885    -23.140408  8  7  6 125       
PG12 -18550.408787  10754.982178 -15873.081942   -289.321361  3  8  6 130       
PG13 -16796.823251  -2853.905582  20254.164768    401.387134  6  2  7 105       
PG14 -12726.322447 -13357.478330  19153.975975    -97.491738  4  8  4 109       
PG15 -13262.296708   8518.346184  20952.911955    -22.980444  6  5  5 108       
PG16  26801.115052    785.725833    -37.525714   -525.809800  2  7  4 113       
PG17 -12625.420150 -23319.546145   1011.425354    666.330087  5  7  5  76       
PG18  -3266.059267  23519.875364  11750.287338     23.413490  5 10  6 122       
PG19 -16999.910748 -18080.593599 -10048.088881    220.472143  7  6  7  92       
PG20 -25160.424428   -321.918369  -8119.542618    480.411493  4  9  7 120       
PG21  16380.602392 -16157.011144  13195.952093    158.404221  5  3  6 107       
PG22  17780.392540  15968.019457 -11357.010775    341.127675  5  6  5 112       
PG23   3556.865779  14696.853119  21831.788126     -0.822319  6  4  5 107       
PG24 -14429.935518  20466.124120   7863.959764    109.211886  6 10  7 122       
PG25  -6365.721791  15321.492661 -20975.393549    379.783581  3  8  5 126       
PG26  24349.740832   4535.096573 -10104.255103    231.500408     8  6  91       
PG27  18709.137579   6182.011658  17779.662707    201.946926  3  3  2 104       
PG28 -20265.705009 -10324.418899  14012.519946    331.932231  7  8  4 112       
PG29   1356.731717  22275.062266 -14381.063468   -557.654873  6  8  7 123       
PG30  -5753.100703 -18308.672887  18347.753670   -537.232224  5  8  7 118       
PG31  12848.968442   8577.781874 -21728.327269   -195.934912  3  2  3  95       
PG32  15912.017425  21306.362500  -1857.129328   -255.609898  5  5  5  93       
*  2022 10  7  5  0  0.00000000
PG01  13897.336209 -21419.421710   6328.995159    271.591801  5  6  3 104       
PG02 -13905.040916  20068.476807 -10057.599373   -643.357845  4 10  6 131       
PG03  19379.139827 -11876.162888 -13779.603067   -361.526759  5  7  2  90       
PG04   8079.570274 -14002.138379 -21054.725794   -107.538238  6  6  5 119       
PG05 -25654.472886   6438.400058   2879.234071    -99.447088  6  6  6  99       
PG06 -10256.912082 -11836.355100 -21374.319432    483.844269  6  7  3 101       
PG07   4084.511497 -24769.550032   8282.157197    301.131462  4  4  1  99       
PG08  15285.623608  -4592.758830  21242.796620    -87.749032  2  5  7 111       
PG09  -2911.803309 -21378.155190 -15542.494788   -286.575375  8  5  4 112       
PG10  12952.506286  12035.631497  20067.753617     -6.442334  5  4  5 104       
PG11 -16139.427592   -222.260994 -21084.549818    -23.143936  7  8  5 129       
PG12 -20209.697390  10619.474510 -13752.883223   -289.325344  3  8  7 123       
PG13 -17764.247342  -4913.384933  19022.689640    401.393508  5  3  6 108       
PG14 -10480.469349 -13597.976793  20301.124348    -97.488512  4  8  4  91       
PG15 -14916.516162   6678.235792  20538.933571    -22.977328  5  6  5  96       
PG16  26667.901170    986.814824  -2872.856929   -525.810390  2  8  4 118       
PG17 -12324.902511 -23233.018629   3885.779131    666.333642  4  8  5  82       
PG18  -3971.643240  24515.152399   9215.537559     23.401566  6 11  5 120       
PG19 -17319.277797 -19002.922518  -7411.109750    220.476564  7  7  6 104       
PG20 -24182.878483   -874.059717 -10669.361608    480.408559  4  9  7 121       
PG21  16055.370323 -14605.013971  15392.598531    158.403641  4  4  6 107       
PG22  18204.279792  17117.931550  -8838.233556    341.133853  5  6  5 102       
PG23   1075.164272  15000.973993  21876.592900     -0.822554  6  4  5  94       
PG24 -14369.050438  19315.527217  10413.483321    109.199142  6  8  7 112       
PG25  -8657.945247  15456.907484 -19995.018164    379.787166  4  8  4 125       
PG26  23129.314647   4980.681016 -12472.558083    231.501744  2  7  6 110       
PG27  19737.316729   7847.360888  15974.760887    201.941723  3  4  2 108       
PG28 -18613.666986 -10502.123519  16113.486629    331.928474  7  8  3 107       
PG29    324.991669  20845.871145 -16449.204117   -557.657619  7  8  7 123       
PG30  -4714.269767 -20037.334070  16737.275205   -537.232305  5  9  7 118       
PG31  11734.086666  10748.942837 -21347.043175   -195.936117  3  3  3  92       
PG32  15750.665442  21503.920808    982.519222   -255.620467  5  4  5  83       
EOF
